{"type":"FeatureCollection","name":"Stadtkreis 1, Zürich","source":"Stadt Zürich Open Data — WFS geoportal/Stadtkreise, layer adm_stadtkreise_a, EPSG:4326","retrieved":"2026-08-26","features":[{"type":"Feature","properties":{"bezeichnung":"Kreis 1","name":1},"geometry":{"coordinates":[[[8.529217,47.369205],[8.529571,47.369437],[8.529723,47.36954],[8.529872,47.369646],[8.530016,47.369755],[8.530156,47.369867],[8.53029,47.369981],[8.53042,47.370098],[8.53055,47.370221],[8.530665,47.370338],[8.53078,47.370462],[8.53089,47.370588],[8.530994,47.370716],[8.531093,47.370847],[8.531016,47.370879],[8.53106,47.370949],[8.53104,47.370955],[8.531168,47.371162],[8.531188,47.371157],[8.531337,47.371399],[8.531612,47.371818],[8.531738,47.372011],[8.531816,47.37213],[8.532021,47.372443],[8.532089,47.37255],[8.532291,47.372857],[8.532344,47.372936],[8.532449,47.373095],[8.53243,47.373099],[8.532513,47.373228],[8.53254,47.373269],[8.53257,47.373317],[8.532572,47.373317],[8.532826,47.373721],[8.532895,47.373828],[8.532967,47.373934],[8.532989,47.373924],[8.533005,47.373943],[8.533096,47.374052],[8.533435,47.374435],[8.533495,47.374411],[8.53404,47.374969],[8.534065,47.374996],[8.534038,47.375007],[8.534077,47.375049],[8.534103,47.375037],[8.534141,47.37508],[8.534438,47.375376],[8.534576,47.375507],[8.534726,47.375633],[8.53485,47.375713],[8.535453,47.376088],[8.53546,47.376093],[8.535402,47.376122],[8.535611,47.376274],[8.535754,47.376378],[8.535792,47.376354],[8.535903,47.37644],[8.535894,47.376447],[8.535911,47.376459],[8.53669,47.376999],[8.536981,47.377257],[8.537111,47.377371],[8.537475,47.377696],[8.537482,47.377702],[8.537488,47.377708],[8.537495,47.377715],[8.537502,47.377721],[8.537508,47.377728],[8.537515,47.377735],[8.537521,47.377742],[8.537527,47.377748],[8.537533,47.377755],[8.537539,47.377762],[8.537544,47.377769],[8.53755,47.377776],[8.537555,47.377783],[8.537561,47.37779],[8.537559,47.377791],[8.537562,47.377795],[8.537556,47.377797],[8.537632,47.377903],[8.537663,47.377947],[8.537764,47.378098],[8.53786,47.378252],[8.538333,47.379059],[8.538424,47.379217],[8.538467,47.379289],[8.53868,47.379655],[8.538732,47.379638],[8.538804,47.379792],[8.538813,47.379812],[8.538887,47.380031],[8.538951,47.380251],[8.538996,47.380474],[8.539021,47.380699],[8.539023,47.380789],[8.539026,47.380923],[8.539016,47.381148],[8.53899,47.381372],[8.538944,47.381595],[8.538883,47.381816],[8.538847,47.381926],[8.538801,47.382034],[8.538781,47.38203],[8.538762,47.382077],[8.538783,47.382081],[8.538636,47.382425],[8.538614,47.38242],[8.538572,47.382496],[8.53848,47.382663],[8.53886,47.382968],[8.53926,47.382739],[8.540007,47.381953],[8.540497,47.381274],[8.541674,47.379647],[8.541953,47.379714],[8.541958,47.379716],[8.54214,47.379759],[8.542177,47.379768],[8.542427,47.379829],[8.542691,47.379858],[8.542972,47.379926],[8.543023,47.379825],[8.543058,47.379747],[8.543196,47.379421],[8.543335,47.379096],[8.543376,47.378989],[8.543409,47.378882],[8.54344,47.378747],[8.543654,47.378884],[8.543878,47.3789],[8.543972,47.378901],[8.544046,47.378904],[8.54414,47.378908],[8.544166,47.378909],[8.544167,47.378909],[8.544168,47.378909],[8.544169,47.378909],[8.54417,47.378909],[8.54417,47.378909],[8.544171,47.378909],[8.544172,47.378909],[8.544173,47.378909],[8.544174,47.37891],[8.544175,47.37891],[8.544175,47.37891],[8.544176,47.37891],[8.544177,47.37891],[8.544178,47.378911],[8.544179,47.378911],[8.544179,47.378911],[8.54418,47.378911],[8.544181,47.378912],[8.544182,47.378912],[8.544182,47.378912],[8.544183,47.378912],[8.544184,47.378913],[8.544185,47.378913],[8.544186,47.378913],[8.544186,47.378914],[8.544187,47.378914],[8.544188,47.378915],[8.544188,47.378915],[8.544189,47.378915],[8.54419,47.378916],[8.544191,47.378916],[8.544191,47.378917],[8.544192,47.378917],[8.544193,47.378918],[8.544193,47.378918],[8.54443,47.379014],[8.544497,47.379041],[8.544755,47.379148],[8.545008,47.379244],[8.545026,47.37922],[8.545035,47.379212],[8.545309,47.379026],[8.545329,47.379033],[8.545388,47.378942],[8.545419,47.378893],[8.545444,47.378856],[8.545503,47.378766],[8.545524,47.378735],[8.545599,47.378619],[8.545669,47.378511],[8.545701,47.378462],[8.545923,47.378121],[8.546122,47.377811],[8.546548,47.377153],[8.54655,47.37715],[8.546551,47.377147],[8.546553,47.377145],[8.546556,47.377142],[8.546558,47.37714],[8.54656,47.377137],[8.546562,47.377135],[8.546564,47.377132],[8.546566,47.37713],[8.546569,47.377128],[8.546571,47.377125],[8.546573,47.377123],[8.546576,47.377121],[8.546578,47.377119],[8.546581,47.377117],[8.546583,47.377115],[8.546586,47.377113],[8.546588,47.377111],[8.546591,47.377109],[8.546595,47.377106],[8.546598,47.377104],[8.546602,47.377101],[8.546605,47.377099],[8.546609,47.377097],[8.546613,47.377095],[8.546617,47.377092],[8.54662,47.37709],[8.546624,47.377088],[8.546628,47.377086],[8.546632,47.377084],[8.546636,47.377082],[8.54664,47.377081],[8.546644,47.377079],[8.546648,47.377077],[8.546652,47.377076],[8.546661,47.377069],[8.546687,47.377061],[8.5467,47.377061],[8.547167,47.377159],[8.547169,47.37716],[8.547171,47.377161],[8.547173,47.377162],[8.547175,47.377162],[8.547176,47.377163],[8.547178,47.377164],[8.54718,47.377166],[8.547181,47.377167],[8.547183,47.377168],[8.547185,47.377169],[8.547186,47.37717],[8.547187,47.377171],[8.547189,47.377172],[8.54719,47.377173],[8.547191,47.377174],[8.547193,47.377175],[8.547194,47.377176],[8.547195,47.377177],[8.547196,47.377178],[8.547186,47.3772],[8.547368,47.377238],[8.548103,47.377393],[8.548154,47.377366],[8.548503,47.377439],[8.548664,47.377088],[8.548758,47.376865],[8.548758,47.376865],[8.548757,47.376864],[8.548757,47.376863],[8.548757,47.376862],[8.548757,47.376862],[8.548756,47.376861],[8.548756,47.37686],[8.548756,47.37686],[8.548756,47.376859],[8.548755,47.376858],[8.548755,47.376858],[8.548755,47.376857],[8.548755,47.376856],[8.548755,47.376855],[8.548754,47.376855],[8.548754,47.376854],[8.548754,47.376853],[8.548754,47.376853],[8.548754,47.376852],[8.548754,47.376851],[8.548754,47.37685],[8.548754,47.37685],[8.548753,47.376849],[8.548753,47.376848],[8.548753,47.376847],[8.548753,47.376847],[8.548753,47.376846],[8.548753,47.376845],[8.548753,47.376844],[8.548753,47.376844],[8.548753,47.376843],[8.548753,47.376842],[8.548754,47.376841],[8.548754,47.376841],[8.548754,47.37684],[8.548754,47.376839],[8.548754,47.376838],[8.548754,47.376838],[8.548754,47.376837],[8.548754,47.376836],[8.548754,47.376836],[8.548755,47.376835],[8.548755,47.376834],[8.548755,47.376833],[8.548755,47.376833],[8.548756,47.376832],[8.548756,47.376831],[8.548756,47.376831],[8.548756,47.37683],[8.548757,47.376829],[8.548757,47.376829],[8.548757,47.376828],[8.548757,47.376827],[8.548863,47.376596],[8.548986,47.376327],[8.54914,47.37599],[8.549268,47.375762],[8.549291,47.375768],[8.54931,47.375734],[8.549288,47.375727],[8.549322,47.375665],[8.549323,47.375664],[8.549323,47.375663],[8.549324,47.375662],[8.549325,47.375661],[8.549325,47.37566],[8.549326,47.375659],[8.549327,47.375658],[8.549327,47.375658],[8.549328,47.375657],[8.549329,47.375656],[8.549329,47.375655],[8.54933,47.375654],[8.549331,47.375653],[8.549332,47.375652],[8.549333,47.375651],[8.549334,47.37565],[8.549335,47.375649],[8.549336,47.375648],[8.549337,47.375647],[8.549338,47.375646],[8.549339,47.375645],[8.54934,47.375644],[8.549342,47.375643],[8.549343,47.375642],[8.549344,47.375642],[8.549345,47.375641],[8.549455,47.375561],[8.549447,47.375555],[8.549445,47.375554],[8.549443,47.375553],[8.549441,47.375551],[8.549439,47.37555],[8.549437,47.375549],[8.549435,47.375547],[8.549433,47.375546],[8.549432,47.375544],[8.54943,47.375543],[8.549428,47.375541],[8.549426,47.375539],[8.549424,47.375538],[8.549423,47.375536],[8.549421,47.375534],[8.549419,47.375533],[8.549417,47.375531],[8.549416,47.375529],[8.549414,47.375527],[8.549413,47.375525],[8.549411,47.375523],[8.54941,47.375522],[8.549408,47.37552],[8.549407,47.375518],[8.549405,47.375516],[8.549404,47.375514],[8.549403,47.375512],[8.549401,47.37551],[8.5494,47.375508],[8.549399,47.375506],[8.549398,47.375503],[8.549396,47.375501],[8.549396,47.3755],[8.549395,47.375498],[8.549394,47.375497],[8.549394,47.375495],[8.549393,47.375494],[8.549392,47.375492],[8.549392,47.375491],[8.549391,47.375489],[8.549391,47.375488],[8.54939,47.375486],[8.54939,47.375485],[8.549389,47.375483],[8.549389,47.375482],[8.549388,47.37548],[8.549388,47.375478],[8.549388,47.375477],[8.549387,47.375475],[8.549387,47.375474],[8.549387,47.375472],[8.549387,47.37547],[8.549386,47.375469],[8.549386,47.375467],[8.549386,47.375465],[8.549386,47.375464],[8.549386,47.375462],[8.549386,47.375461],[8.549386,47.375459],[8.549386,47.375457],[8.549386,47.375456],[8.549386,47.375454],[8.549386,47.375452],[8.549386,47.375451],[8.549386,47.375449],[8.549386,47.375447],[8.549387,47.375446],[8.549387,47.375444],[8.549387,47.375443],[8.549387,47.375441],[8.549388,47.375439],[8.549388,47.375438],[8.549388,47.375438],[8.549392,47.375419],[8.549397,47.375401],[8.549402,47.375383],[8.549407,47.375365],[8.549412,47.375347],[8.549418,47.375329],[8.549424,47.375311],[8.549431,47.375289],[8.549439,47.375268],[8.549446,47.375247],[8.549455,47.375227],[8.549463,47.375206],[8.549472,47.375185],[8.549539,47.375037],[8.549896,47.374256],[8.549948,47.374139],[8.549974,47.374081],[8.549999,47.374022],[8.550024,47.373962],[8.550047,47.373903],[8.55007,47.373844],[8.550091,47.373784],[8.550188,47.373514],[8.550227,47.37341],[8.550305,47.373218],[8.550498,47.37279],[8.550657,47.372517],[8.550737,47.372339],[8.550741,47.372332],[8.550744,47.372324],[8.550747,47.372316],[8.550751,47.372308],[8.550753,47.3723],[8.550756,47.372292],[8.550759,47.372284],[8.550762,47.372276],[8.550764,47.372267],[8.550767,47.372259],[8.550769,47.372251],[8.550771,47.372242],[8.550773,47.372234],[8.550775,47.372225],[8.550776,47.372217],[8.550778,47.372208],[8.550779,47.3722],[8.55078,47.372191],[8.550781,47.372183],[8.550782,47.372174],[8.550783,47.372166],[8.550783,47.372157],[8.550784,47.372149],[8.550784,47.37214],[8.550784,47.372132],[8.550784,47.372124],[8.550784,47.372115],[8.550784,47.372107],[8.550783,47.372098],[8.550783,47.37209],[8.550782,47.372081],[8.550781,47.372073],[8.55078,47.372065],[8.550779,47.372056],[8.550778,47.372048],[8.550776,47.37204],[8.550764,47.372004],[8.550751,47.371975],[8.550733,47.371946],[8.550712,47.371918],[8.55067,47.371874],[8.550627,47.371829],[8.550474,47.371671],[8.550437,47.371631],[8.550291,47.371477],[8.550245,47.371434],[8.55024,47.371429],[8.550083,47.371262],[8.549933,47.371103],[8.55001,47.37107],[8.549747,47.370793],[8.549594,47.370632],[8.549354,47.370409],[8.549325,47.370401],[8.549238,47.37031],[8.549043,47.370103],[8.548944,47.369999],[8.549141,47.369841],[8.549197,47.369797],[8.549455,47.369589],[8.549456,47.369589],[8.549664,47.36942],[8.54974,47.369359],[8.550078,47.369086],[8.550066,47.36908],[8.550179,47.368988],[8.550191,47.368994],[8.550211,47.368978],[8.5502,47.368972],[8.55023,47.368947],[8.550241,47.368953],[8.550257,47.368941],[8.550375,47.368844],[8.550406,47.36882],[8.55049,47.368752],[8.550737,47.368552],[8.550853,47.368459],[8.550779,47.368467],[8.550397,47.368187],[8.550056,47.367938],[8.54979,47.367744],[8.549945,47.367615],[8.55009,47.367492],[8.550275,47.367337],[8.550467,47.367176],[8.550437,47.367158],[8.550395,47.367131],[8.550158,47.366979],[8.549893,47.366808],[8.549735,47.366708],[8.549533,47.366578],[8.549448,47.366592],[8.549236,47.366691],[8.549169,47.366623],[8.549095,47.366549],[8.54893,47.36638],[8.548916,47.366366],[8.548914,47.366367],[8.548843,47.366295],[8.548865,47.36621],[8.548866,47.366035],[8.548851,47.36602],[8.548629,47.365804],[8.548627,47.365804],[8.548621,47.365798],[8.548445,47.365626],[8.548434,47.365615],[8.548417,47.3656],[8.548281,47.365468],[8.548248,47.365436],[8.54819,47.365379],[8.548048,47.365241],[8.547814,47.365011],[8.547618,47.364822],[8.547425,47.364634],[8.547424,47.364633],[8.547423,47.364634],[8.547366,47.364579],[8.54696,47.364422],[8.546868,47.364397],[8.546637,47.364334],[8.546354,47.364257],[8.546188,47.364213],[8.546122,47.364214],[8.545858,47.364219],[8.54582,47.364209],[8.545415,47.364098],[8.542139,47.363205],[8.540332,47.365156],[8.539952,47.365567],[8.539845,47.365698],[8.539845,47.365699],[8.539844,47.365699],[8.539844,47.365699],[8.539844,47.3657],[8.539844,47.3657],[8.539843,47.365701],[8.539843,47.365701],[8.539843,47.365701],[8.539843,47.365702],[8.539842,47.365702],[8.539842,47.365702],[8.539842,47.365703],[8.539842,47.365703],[8.539841,47.365704],[8.539841,47.365704],[8.539841,47.365704],[8.539841,47.365705],[8.539841,47.365705],[8.539841,47.365706],[8.53984,47.365706],[8.53984,47.365707],[8.53984,47.365707],[8.53984,47.365707],[8.53984,47.365708],[8.53984,47.365708],[8.539839,47.365709],[8.539839,47.365709],[8.539839,47.36571],[8.539839,47.36571],[8.539839,47.36571],[8.539839,47.365711],[8.539839,47.365711],[8.539839,47.365712],[8.539839,47.365712],[8.539839,47.365713],[8.539839,47.365713],[8.539839,47.365714],[8.539839,47.365714],[8.539839,47.365715],[8.539839,47.365715],[8.539839,47.365715],[8.539839,47.365716],[8.539839,47.365716],[8.539839,47.365717],[8.539839,47.365717],[8.539839,47.365718],[8.539839,47.365718],[8.539839,47.365719],[8.539839,47.365719],[8.539839,47.36572],[8.539839,47.36572],[8.539839,47.36572],[8.539839,47.365721],[8.539839,47.365721],[8.539839,47.365722],[8.539839,47.365722],[8.539839,47.365723],[8.53984,47.365723],[8.53984,47.365724],[8.53984,47.365724],[8.53984,47.365725],[8.53984,47.365725],[8.539841,47.365726],[8.539841,47.365726],[8.539841,47.365727],[8.539842,47.365728],[8.539842,47.365728],[8.539842,47.365729],[8.539843,47.365729],[8.539843,47.36573],[8.539844,47.365731],[8.539844,47.365731],[8.539844,47.365732],[8.539845,47.365732],[8.539845,47.365733],[8.539846,47.365733],[8.539846,47.365734],[8.539847,47.365734],[8.539847,47.365735],[8.539847,47.365735],[8.539848,47.365736],[8.539848,47.365736],[8.539849,47.365737],[8.539849,47.365737],[8.53985,47.365738],[8.53985,47.365738],[8.539851,47.365739],[8.539852,47.365739],[8.539852,47.365739],[8.539853,47.36574],[8.539853,47.36574],[8.539854,47.365741],[8.539854,47.365741],[8.539855,47.365741],[8.539855,47.365742],[8.539856,47.365742],[8.539857,47.365742],[8.539857,47.365743],[8.539858,47.365743],[8.539858,47.365743],[8.539859,47.365744],[8.53986,47.365744],[8.53986,47.365744],[8.539861,47.365745],[8.539862,47.365745],[8.539675,47.36595],[8.53966,47.365966],[8.539656,47.365964],[8.539628,47.365992],[8.539615,47.365987],[8.539575,47.366053],[8.539549,47.366093],[8.539517,47.366135],[8.539323,47.366349],[8.539228,47.366456],[8.539127,47.366564],[8.538934,47.366776],[8.538739,47.36699],[8.538734,47.366995],[8.538333,47.367433],[8.538279,47.367492],[8.538259,47.367513],[8.538147,47.367637],[8.537896,47.36791],[8.537893,47.367913],[8.53785,47.367961],[8.537695,47.36813],[8.537547,47.368291],[8.537575,47.368302],[8.537424,47.368468],[8.537381,47.368515],[8.537385,47.368517],[8.537348,47.368559],[8.537278,47.368615],[8.537232,47.368645],[8.537231,47.368645],[8.537157,47.368682],[8.537143,47.368665],[8.537026,47.36871],[8.536901,47.368744],[8.536773,47.368771],[8.536637,47.368786],[8.536003,47.368838],[8.53537,47.36889],[8.535363,47.368891],[8.535355,47.368891],[8.535348,47.368892],[8.53534,47.368893],[8.535333,47.368894],[8.535325,47.368896],[8.535318,47.368897],[8.535311,47.368898],[8.535303,47.3689],[8.535296,47.368902],[8.535289,47.368904],[8.535282,47.368906],[8.535274,47.368908],[8.535267,47.36891],[8.53526,47.368913],[8.535253,47.368915],[8.535246,47.368918],[8.535239,47.368921],[8.535232,47.368923],[8.535225,47.368927],[8.535219,47.36893],[8.535212,47.368933],[8.535208,47.368935],[8.535204,47.368937],[8.5352,47.368939],[8.535196,47.368941],[8.535192,47.368944],[8.535188,47.368946],[8.535184,47.368948],[8.53518,47.368951],[8.535176,47.368953],[8.535173,47.368956],[8.535169,47.368958],[8.535165,47.368961],[8.535162,47.368964],[8.535158,47.368967],[8.535155,47.36897],[8.535151,47.368973],[8.535148,47.368976],[8.535144,47.368979],[8.535141,47.368982],[8.535138,47.368985],[8.535135,47.368988],[8.535131,47.368992],[8.535128,47.368995],[8.535125,47.368998],[8.535122,47.369002],[8.535119,47.369005],[8.535117,47.369009],[8.535114,47.369012],[8.535111,47.369016],[8.535108,47.36902],[8.535106,47.369024],[8.534787,47.369522],[8.534712,47.369509],[8.534325,47.369444],[8.534041,47.369402],[8.534004,47.369396],[8.533787,47.369364],[8.5337,47.36945],[8.533697,47.369449],[8.533654,47.369492],[8.533584,47.369466],[8.533582,47.369468],[8.5331,47.369287],[8.532651,47.369118],[8.532476,47.369095],[8.532263,47.369014],[8.532072,47.368942],[8.532042,47.368931],[8.531686,47.368796],[8.531395,47.368686],[8.531193,47.36861],[8.5311,47.368574],[8.530907,47.368501],[8.530704,47.368428],[8.530641,47.368406],[8.530563,47.368373],[8.53049,47.368334],[8.530421,47.368291],[8.530376,47.368257],[8.530299,47.36832],[8.53,47.368565],[8.529605,47.368888],[8.529538,47.368942],[8.529471,47.368998],[8.52943,47.369031],[8.529217,47.369205]]],"type":"Polygon"}}]}